ENTRYSAT                
1 44429U 98067QP  19263.33836456  .00006092  00000-0  10442-3 0  9993
2 44429  51.6408 248.5096 0003967  45.8586 314.2730 15.52676941 12328
VCC C                   
1 44430U 98067QQ  19262.88935852  .00007804  00000-0  13148-3 0  9992
2 44430  51.6410 250.7613 0004225  51.8953 308.2417 15.52708330 11081
VCC B                   
1 44431U 98067QR  19263.53633400  .00005275  00000-0  91924-4 0  9999
2 44431  51.6409 247.5816 0004269  52.9118 307.2262 15.52523253 12292
